*******************************************************************************
JPL/HORIZONS                 Borisov (C/2019 Q4)           2025-Oct-10 11:15:01
Rec #:90004555 (+COV) Soln.date: 2024-Jun-24_15:49:04    # obs: 964 (2019-2020)
 
IAU76/J2000 helio. ecliptic osc. elements (au, days, deg., period=Julian yrs):
 
  EPOCH=  2458853.5 ! 2020-Jan-05.0000000 (TDB)    RMSW= n.a.
   EC= 3.356475782676596   QR= 2.006520878500843   TP= 2458826.052845906
   OM= 308.1477292269942   W= 209.1236864378081    IN= 44.05264247909138
   A= -.8514922551937886   MA= 34.42947030737667   ADIST= 9.999999E99
   PER= 9.999999E99        N= 1.254391264          ANGMOM= .050859365
   DAN= -4.52423           DDN= 2.22307            L= 149.9695468
   B= -19.7799936          MOID= 1.09291995        TP= 2019-Dec-08.5528459060
 
Comet physical (GM= km^3/s^2; RAD= km):
   GM= n.a.                RAD= n.a.
   M1=  13.8     M2=  n.a.     k1=  4.5    k2= n.a.     PHCOF= n.a.
Comet non-gravitational force model (AMRAT=m^2/kg;A1-A3=au/d^2;DT=days;R0=au):
   AMRAT=  0.                                      DT=  -65.1301
   A1= 4.85958814621E-8    A2= 1.879898667336E-8   A3= 2.835503220558E-9
 Non-standard or simulated/proxy model:
   ALN=  1.            NK=  0.       NM=  2.       NN=  0.       R0=  1.
 
COMET comments 
1: soln ref.= JPL#54, data arc: 2019-02-24 to 2020-09-30
2: k1=4.5;
*******************************************************************************


*******************************************************************************
Ephemeris / WWW_USER Fri Oct 10 11:15:01 2025 Pasadena, USA      / Horizons    
*******************************************************************************
Target body name: Borisov (C/2019 Q4)             {source: JPL#54}
Center body name: Earth (399)                     {source: DE441}
Center-site name: ATLAS Chile, Rio Hurtado
*******************************************************************************
Start time      : A.D. 2019-Feb-28 00:00:00.0000 UT      
Stop  time      : A.D. 2020-Feb-28 00:00:00.0000 UT      
Step-size       : 1440 minutes
*******************************************************************************
Target pole/equ : undefined
Target radii    : undefined                                                    
Center geodetic : 289.235, -30.4709774, 1.60227   {E-lon(deg),Lat(deg),Alt(km)}
Center cylindric: 289.235,5503.34663,-3216.29438  {E-lon(deg),Dxy(km),Dz(km)}
Center pole/equ : ITRF93                          {East-longitude positive}
Center radii    : 6378.137, 6378.137, 6356.752 km {Equator_a, b, pole_c}       
Target primary  : Sun
Vis. interferer : MOON (R_eq= 1737.400) km        {source: DE441}
Rel. light bend : Sun                             {source: DE441}
Rel. lght bnd GM: 1.3271E+11 km^3/s^2                                          
Small-body perts: Yes                             {source: SB441-N16}
Atmos refraction: NO (AIRLESS)
RA format       : HMS
Time format     : CAL 
Calendar mode   : Mixed Julian/Gregorian
EOP file        : eop.251009.p260105                                           
EOP coverage    : DATA-BASED 1962-JAN-20 TO 2025-OCT-09. PREDICTS-> 2026-JAN-04
Units conversion: 1 au= 149597870.700 km, c= 299792.458 km/s, 1 day= 86400.0 s 
Table cut-offs 1: Elevation (-90.0deg=NO ),Airmass (>38.000=NO), Daylight (NO )
Table cut-offs 2: Solar elongation (  0.0,180.0=NO ),Local Hour Angle( 0.0=NO )
Table cut-offs 3: RA/DEC angular rate (     0.0=NO )                           
Table format    : Comma Separated Values (spreadsheet)
*******************************************************************************
Initial IAU76/J2000 heliocentric ecliptic osculating elements (au, days, deg.):
  EPOCH=  2458853.5 ! 2020-Jan-05.0000000 (TDB)    RMSW= n.a.                  
   EC= 3.356475782676596   QR= 2.006520878500843   TP= 2458826.052845906       
   OM= 308.1477292269942   W= 209.1236864378081    IN= 44.05264247909138       
  Equivalent ICRF heliocentric cartesian coordinates (au, au/d):
   X=-1.746422156220264E+00  Y= 7.994315507603348E-01  Z=-8.420898120636099E-01
  VX=-3.266387554200373E-03 VY=-1.273246218308122E-02 VZ=-2.137606337596023E-02
Comet physical (GM= km^3/s^2; RAD= km):                                        
   GM= n.a.                RAD= n.a.                                           
   M1=  13.8     M2=  n.a.     k1=  4.5    k2= n.a.     PHCOF= n.a.            
Comet non-gravitational force model (AMRAT=m^2/kg;A1-A3=au/d^2;DT=days;R0=au): 
   AMRAT=  0.                                      DT=  -65.1301               
   A1= 4.85958814621E-8    A2= 1.879898667336E-8   A3= 2.835503220558E-9       
 Non-standard or simulated/proxy model:                                        
   ALN=  1.            NK=  0.       NM=  2.       NN=  0.       R0=  1.       
***************************************************************************************************************************************************************************************************************************************************************************************************************************************************************************
 Date__(UT)__HR:MN, , , R.A._(ICRF), DEC__(ICRF),  R.A.__(a-app), DEC_(a-app),  dRA*cosD, d(DEC)/dt, Azi_(a-app), Elev_(a-app),  a-mass, mag_ex,    T-mag,  N-mag,      Illu%,                r,       rdot,             delta,     deldot,     S-O-T,/r,     S-T-O,    PsAng,   PsAMV,      GlxLon,    GlxLat,  Sky_motion, Sky_mot_PA, RelVel-ANG,  Lun_Sky_Brt, sky_SNR,
***************************************************************************************************************************************************************************************************************************************************************************************************************************************************************************
$$SOE
 2019-Feb-28 00:00,N, , 04 10 05.45, +56 59 45.9,    04 11 38.02, +57 02 48.3,  7.733558,  -16.6740,  347.293898,     0.187610,  29.754,  5.236,   21.396,   n.a.,   99.39338,   6.369107929348,-33.6085160,  6.24615584493651,-10.6176868,   92.6460,/T,    8.9338,   78.884, 292.576,  147.522924,  3.936983,   0.3063352,  155.11762,  -24.66064,         n.a.,    n.a.,
 2019-Mar-01 00:00,N, , 04 10 29.72, +56 53 09.3,    04 12 02.14, +56 56 11.0,  8.133578,  -16.6432,  346.803923,     0.119812,  30.385,  5.347,   21.388,   n.a.,   99.38867,   6.349698065881,-33.6037581,  6.23998968064237,-10.5544130,   91.8578,/T,    8.9685,   78.384, 292.980,  147.638526,  3.893707,   0.3087397,  153.95517,  -24.38357,         n.a.,    n.a.,
 2019-Mar-02 00:00,N, , 04 10 55.08, +56 46 33.6,    04 12 27.37, +56 49 34.6,  8.533342,  -16.6096,  346.315946,     0.045849,  31.094,  5.472,   21.380,   n.a.,   99.38415,   6.330290977978,-33.5989173,  6.23385620451982,-10.4978580,   91.0702,/T,    9.0017,   77.892, 293.378,  147.755961,  3.852577,   0.3112237,  152.80773,  -24.11748,         n.a.,    n.a.,
 2019-Mar-03 00:00,N, , 04 11 21.52, +56 39 58.9,    04 12 53.67, +56 42 59.2,  8.932711,  -16.5731,  345.830043,    -0.034209,  31.886,  5.612,   21.372,   n.a.,   99.37981,   6.310886713399,-33.5939925,  6.22775154097710,-10.4480430,   90.2832,/T,    9.0335,   77.407, 293.770,  147.875209,  3.813618,   0.3137859,  151.67587,  -23.86263,         n.a.,    n.a.,
 2019-Mar-04 00:00,N, , 04 11 49.04, +56 33 25.1,    04 13 21.06, +56 36 24.7,  9.331546,  -16.5339,  345.346289,    -0.120289,  32.765,  5.766,   21.364,   n.a.,   99.37567,   6.291485320636,-33.5889823,  6.22167180573381,-10.4049784,   89.4970,/T,    9.0637,   76.930, 294.157,  147.996252,  3.776854,   0.3164248,  150.56016,  -23.61923,         n.a.,    n.a.,
 2019-Mar-05 00:00,N, , 04 12 17.63, +56 26 52.5,    04 13 49.51, +56 29 51.3,  9.729707,  -16.4922,  344.864759,    -0.212319,  33.739,  5.938,   21.356,   n.a.,   99.37173,   6.272086848919,-33.5838854,  6.21561311200151,-10.3686640,   88.7116,/T,    9.0924,   76.460, 294.538,  148.119072,  3.742307,   0.3191390,  149.46113,  -23.38745,         n.a.,    n.a.,
 2019-Mar-06 00:00,N, , 04 12 47.29, +56 20 21.0,    04 14 19.02, +56 23 19.0,  10.12705,  -16.4480,  344.385521,    -0.310224,  34.815,  6.127,   21.348,   n.a.,   99.36798,   6.252691348236,-33.5787006,  6.20957157674166,-10.3390882,   87.9273,/T,    9.1196,   75.997, 294.913,  148.243648,  3.709998,   0.3219266,  148.37926,  -23.16740,         n.a.,    n.a.,
 2019-Mar-07 00:00,N, , 04 13 17.99, +56 13 50.7,    04 14 49.59, +56 16 47.9,  10.52345,  -16.4014,  343.908644,    -0.413928,  35.999,  6.335,   21.339,   n.a.,   99.36444,   6.233298869340,-33.5734265,  6.20354332755447,-10.3162268,   87.1439,/T,    9.1452,   75.541, 295.281,  148.369961,  3.679948,   0.3247860,  147.31504,  -22.95915,         n.a.,    n.a.,
 2019-Mar-08 00:00,N,m, 04 13 49.74, +56 07 21.6,    04 15 21.20, +56 10 18.0,  10.91874,  -16.3527,  343.434192,    -0.523356,  37.300,  6.564,   21.331,   n.a.,   99.36111,   6.213909463763,-33.5680618,  6.19752451050049,-10.3000411,   86.3618,/T,    9.1693,   75.091, 295.644,  148.497990,  3.652175,   0.3277154,  146.26890,  -22.76272,         n.a.,    n.a.,
 2019-Mar-09 00:00,N,m, 04 14 22.53, +56 00 53.9,    04 15 53.85, +56 03 49.3,  11.31280,  -16.3020,  342.962226,    -0.638431,    n.a.,   n.a.,   21.323,   n.a.,   99.35798,   6.194523183830,-33.5626050,  6.19151129889591,-10.2904763,   85.5808,/T,    9.1918,   74.647, 296.000,  148.627714,  3.626699,   0.3307128,  145.24125,  -22.57807,         n.a.,    n.a.,
 2019-Mar-10 00:00,N,m, 04 14 56.34, +55 54 27.4,    04 16 27.53, +55 57 21.9,  11.70550,  -16.2495,  342.492805,    -0.759076,    n.a.,   n.a.,   21.315,   n.a.,   99.35507,   6.175140082671,-33.5570548,  6.18549990293765,-10.2874607,   84.8012,/T,    9.2128,   74.209, 296.350,  148.759111,  3.603534,   0.3337764,  144.23247,  -22.40510,         n.a.,    n.a.,
 2019-Mar-11 00:00,A,m, 04 15 31.17, +55 48 02.4,    04 17 02.24, +55 50 55.9,  12.09669,  -16.1952,  342.025986,    -0.885214,    n.a.,   n.a.,   21.307,   n.a.,   99.35237,   6.155760214240,-33.5514098,  6.17948657996476,-10.2909038,   84.0229,/T,    9.2321,   73.778, 296.694,  148.892160,  3.582697,   0.3369042,  143.24289,  -22.24367,         n.a.,    n.a.,
 2019-Mar-12 00:00,A,m, 04 16 07.00, +55 41 38.8,    04 17 37.95, +55 44 31.3,  12.48628,  -16.1395,  341.561820,    -1.016769,    n.a.,   n.a.,   21.298,   n.a.,   99.34989,   6.136383633325,-33.5456684,  6.17346764525889,-10.3006962,   83.2462,/T,    9.2499,   73.352, 297.032,  149.026839,  3.564202,   0.3400944,  142.27281,  -22.09355,         n.a.,    n.a.,
